$$SOE
2459580.500000000, A.D. 2022-Jan-01 00:00:00.0000, 4.978025290399478E+07, 4.419302842488945E+08, -9.721821643497765E+06,
2459587.500000000, A.D. 2022-Jan-08 00:00:00.0000, 3.958762151171356E+07, 4.435571763619043E+08, -9.174880566495866E+06,
2459594.500000000, A.D. 2022-Jan-15 00:00:00.0000, 2.937319618811403E+07, 4.449403886683364E+08, -8.622898061880350E+06,
2459601.500000000, A.D. 2022-Jan-22 00:00:00.0000, 1.914265467359303E+07, 4.460801088352168E+08, -8.066196133177102E+06,
2459608.500000000, A.D. 2022-Jan-29 00:00:00.0000, 8.901639911562810E+06, 4.469766505690355E+08, -7.505096625003755E+06,
2459615.500000000, A.D. 2022-Feb-05 00:00:00.0000, -1.344244296177372E+06, 4.476304508418405E+08, -6.939920922181576E+06,
2459622.500000000, A.D. 2022-Feb-12 00:00:00.0000, -1.158943536831908E+07, 4.480420660501327E+08, -6.370989939091265E+06,
2459629.500000000, A.D. 2022-Feb-19 00:00:00.0000, -2.182841308270907E+07, 4.482121694812811E+08, -5.798624084514767E+06,
2459636.500000000, A.D. 2022-Feb-26 00:00:00.0000, -3.205570108733938E+07, 4.481415493660628E+08, -5.223143140865654E+06,
2459643.500000000, A.D. 2022-Mar-05 00:00:00.0000, -4.226586862731688E+07, 4.478311069015552E+08, -4.644866122821867E+06,
2459650.500000000, A.D. 2022-Mar-12 00:00:00.0000, -5.245353226931058E+07, 4.472818541805529E+08, -4.064111141157717E+06,
2459657.500000000, A.D. 2022-Mar-19 00:00:00.0000, -6.261335755567180E+07, 4.464949120577428E+08, -3.481195276135147E+06,
2459664.500000000, A.D. 2022-Mar-26 00:00:00.0000, -7.274006056900096E+07, 4.454715079489037E+08, -2.896434463129997E+06,
2459671.500000000, A.D. 2022-Apr-02 00:00:00.0000, -8.282840934249568E+07, 4.442129735093812E+08, -2.310143401384860E+06,
2459678.500000000, A.D. 2022-Apr-09 00:00:00.0000, -9.287322484723972E+07, 4.427207421986206E+08, -1.722635510508090E+06,
2459685.500000000, A.D. 2022-Apr-16 00:00:00.0000, -1.028693812028006E+08, 4.409963473870560E+08, -1.134222914063156E+06,
2459692.500000000, A.D. 2022-Apr-23 00:00:00.0000, -1.128118063831892E+08, 4.390414220928603E+08, -5.452162453779876E+05,
2459699.500000000, A.D. 2022-Apr-30 00:00:00.0000, -1.226954852895838E+08, 4.368576981049809E+08, 4.407571242380142E+04,
2459706.500000000, A.D. 2022-May-07 00:00:00.0000, -1.325154621295941E+08, 4.344470025170126E+08, 6.333461103326678E+05,
2459713.500000000, A.D. 2022-May-14 00:00:00.0000, -1.422668407189201E+08, 4.318112547117526E+08, 1.222289962338209E+06,
2459720.500000000, A.D. 2022-May-21 00:00:00.0000, -1.519447847393109E+08, 4.289524645587344E+08, 1.810604167490929E+06,
2459727.500000000, A.D. 2022-May-28 00:00:00.0000, -1.615445184333995E+08, 4.258727308668228E+08, 2.397987590824902E+06,
2459734.500000000, A.D. 2022-Jun-04 00:00:00.0000, -1.710613274618532E+08, 4.225742397792168E+08, 2.984141152384490E+06,
2459741.500000000, A.D. 2022-Jun-11 00:00:00.0000, -1.804905597809567E+08, 4.190592631135660E+08, 3.568767911473840E+06,
2459748.500000000, A.D. 2022-Jun-18 00:00:00.0000, -1.898276265046418E+08, 4.153301566611639E+08, 4.151573143873006E+06,
2459755.500000000, A.D. 2022-Jun-25 00:00:00.0000, -1.990680027241294E+08, 4.113893584126453E+08, 4.732264406832755E+06,
2459762.500000000, A.D. 2022-Jul-02 00:00:00.0000, -2.082072281536784E+08, 4.072393866448839E+08, 5.310551574432552E+06,
2459769.500000000, A.D. 2022-Jul-09 00:00:00.0000, -2.172409072148065E+08, 4.028828380462570E+08, 5.886146822250873E+06,
2459776.500000000, A.D. 2022-Jul-16 00:00:00.0000, -2.261647086173230E+08, 3.983223869635152E+08, 6.458764655185044E+06,
2459783.500000000, A.D. 2022-Jul-23 00:00:00.0000, -2.349743666387832E+08, 3.935607858496445E+08, 7.028122186631978E+06,
2459790.500000000, A.D. 2022-Jul-30 00:00:00.0000, -2.436656840191796E+08, 3.886008635593703E+08, 7.593939387530237E+06,
2459797.500000000, A.D. 2022-Aug-06 00:00:00.0000, -2.522345328735491E+08, 3.834455221377049E+08, 8.155939028706908E+06,
2459804.500000000, A.D. 2022-Aug-13 00:00:00.0000, -2.606768544501962E+08, 3.780977348560639E+08, 8.713846617515951E+06,
2459811.500000000, A.D. 2022-Aug-20 00:00:00.0000, -2.689886593065003E+08, 3.725605449948151E+08, 9.267390431785166E+06,
2459818.500000000, A.D. 2022-Aug-27 00:00:00.0000, -2.771660278347301E+08, 3.668370646459574E+08, 9.816301585753843E+06,
2459825.500000000, A.D. 2022-Sep-03 00:00:00.0000, -2.852051108902479E+08, 3.609304734241656E+08, 1.036031409654438E+07,
2459832.500000000, A.D. 2022-Sep-10 00:00:00.0000, -2.931021304324902E+08, 3.548440171079873E+08, 1.089916494512315E+07,
2459839.500000000, A.D. 2022-Sep-17 00:00:00.0000, -3.008533801506032E+08, 3.485810062067398E+08, 1.143259412911811E+07,
2459846.500000000, A.D. 2022-Sep-24 00:00:00.0000, -3.084552260159059E+08, 3.421448143998505E+08, 1.196034469793440E+07,
2459853.500000000, A.D. 2022-Oct-01 00:00:00.0000, -3.159041065247288E+08, 3.355388768252057E+08, 1.248216274638039E+07,
2459860.500000000, A.D. 2022-Oct-08 00:00:00.0000, -3.231965322278416E+08, 3.287666887386658E+08, 1.299779737205552E+07,
2459867.500000000, A.D. 2022-Oct-15 00:00:00.0000, -3.303290854815846E+08, 3.218318057447908E+08, 1.350700077980484E+07,
2459874.500000000, A.D. 2022-Oct-22 00:00:00.0000, -3.372984226048427E+08, 3.147378439167554E+08, 1.400952859547251E+07,
2459881.500000000, A.D. 2022-Oct-29 00:00:00.0000, -3.441012759433875E+08, 3.074884772123351E+08, 1.450513994771402E+07,
2459888.500000000, A.D. 2022-Nov-05 00:00:00.0000, -3.507344537415055E+08, 3.000874349237449E+08, 1.499359734925769E+07,
2459895.500000000, A.D. 2022-Nov-12 00:00:00.0000, -3.571948397884479E+08, 2.925385004265547E+08, 1.547466666122848E+07,
2459902.500000000, A.D. 2022-Nov-19 00:00:00.0000, -3.634793935612562E+08, 2.848455102735357E+08, 1.594811712837306E+07,
2459909.500000000, A.D. 2022-Nov-26 00:00:00.0000, -3.695851506025179E+08, 2.770123532352014E+08, 1.641372142861283E+07,
2459916.500000000, A.D. 2022-Dec-03 00:00:00.0000, -3.755092229678662E+08, 2.690429692739356E+08, 1.687125572077058E+07,
2459923.500000000, A.D. 2022-Dec-10 00:00:00.0000, -3.812487996988222E+08, 2.609413484688464E+08, 1.732049968787216E+07,
2459930.500000000, A.D. 2022-Dec-17 00:00:00.0000, -3.868011472974597E+08, 2.527115298649383E+08, 1.776123657179409E+07,
2459937.500000000, A.D. 2022-Dec-24 00:00:00.0000, -3.921636100946267E+08, 2.443576001794036E+08, 1.819325318395337E+07,
2459944.500000000, A.D. 2022-Dec-31 00:00:00.0000, -3.973336101550580E+08, 2.358836924710900E+08, 1.861633986815459E+07,
2459951.500000000, A.D. 2023-Jan-07 00:00:00.0000, -4.023086465976620E+08, 2.272939857338300E+08, 1.903029048312652E+07,
2459958.500000000, A.D. 2023-Jan-14 00:00:00.0000, -4.070862962999536E+08, 2.185927059089084E+08, 1.943490262590337E+07,
2459965.500000000, A.D. 2023-Jan-21 00:00:00.0000, -4.116642166337749E+08, 2.097841251439616E+08, 1.982997789606321E+07,
2459972.500000000, A.D. 2023-Jan-28 00:00:00.0000, -4.160401465637687E+08, 2.008725591025335E+08, 2.021532184863897E+07,
2459979.500000000, A.D. 2023-Feb-04 00:00:00.0000, -4.202119063160115E+08, 1.918623653491444E+08, 2.059074390245980E+07,
2459986.500000000, A.D. 2023-Feb-11 00:00:00.0000, -4.241773974138176E+08, 1.827579426141529E+08, 2.095605735288073E+07,
2459993.500000000, A.D. 2023-Feb-18 00:00:00.0000, -4.279346031454668E+08, 1.735637301149179E+08, 2.131107942756106E+07,
2460000.500000000, A.D. 2023-Feb-25 00:00:00.0000, -4.314815892008631E+08, 1.642842067708051E+08, 2.165563134812698E+07,
2460007.500000000, A.D. 2023-Mar-04 00:00:00.0000, -4.348165043742435E+08, 1.549238903293252E+08, 2.198953839002524E+07,
2460014.500000000, A.D. 2023-Mar-11 00:00:00.0000, -4.379375813038396E+08, 1.454873364019165E+08, 2.231262993813033E+07,
2460021.500000000, A.D. 2023-Mar-18 00:00:00.0000, -4.408431372013777E+08, 1.359791373577166E+08, 2.262473952992665E+07,
2460028.500000000, A.D. 2023-Mar-25 00:00:00.0000, -4.435315743684946E+08, 1.264039210259633E+08, 2.292570486400811E+07,
2460035.500000000, A.D. 2023-Apr-01 00:00:00.0000, -4.460013800762040E+08, 1.167663495984085E+08, 2.321536776740827E+07,
2460042.500000000, A.D. 2023-Apr-08 00:00:00.0000, -4.482511264237636E+08, 1.070711199547126E+08, 2.349357427862434E+07,
2460049.500000000, A.D. 2023-Apr-15 00:00:00.0000, -4.502794725161497E+08, 9.732296430296776E+07, 2.376017497058366E+07,
2460056.500000000, A.D. 2023-Apr-22 00:00:00.0000, -4.520851671535729E+08, 8.752664808337384E+07, 2.401502509849941E+07,
2460063.500000000, A.D. 2023-Apr-29 00:00:00.0000, -4.536670492972366E+08, 7.768696738841534E+07, 2.425798450609415E+07,
2460070.500000000, A.D. 2023-May-06 00:00:00.0000, -4.550240480691952E+08, 6.780874767916189E+07, 2.448891759718466E+07,
2460077.500000000, A.D. 2023-May-13 00:00:00.0000, -4.561551832623348E+08, 5.789684290223898E+07, 2.470769338900104E+07,
2460084.500000000, A.D. 2023-May-20 00:00:00.0000, -4.570595661253075E+08, 4.795613451507534E+07, 2.491418558538020E+07,
2460091.500000000, A.D. 2023-May-27 00:00:00.0000, -4.577364002268668E+08, 3.799153038783602E+07, 2.510827264937730E+07,
2460098.500000000, A.D. 2023-Jun-03 00:00:00.0000, -4.581849823406355E+08, 2.800796360467295E+07, 2.528983787180944E+07,
2460105.500000000, A.D. 2023-Jun-10 00:00:00.0000, -4.584047033268496E+08, 1.801039114711390E+07, 2.545876943214682E+07,
2460112.500000000, A.D. 2023-Jun-17 00:00:00.0000, -4.583950489234567E+08, 8.003792397061810E+06, 2.561496043847296E+07,
2460119.500000000, A.D. 2023-Jun-24 00:00:00.0000, -4.581556001277150E+08, -2.006832486309178E+06, 2.575830892154882E+07,
2460126.500000000, A.D. 2023-Jul-01 00:00:00.0000, -4.576860329150308E+08, -1.201646348858934E+07, 2.588871782726871E+07,
2460133.500000000, A.D. 2023-Jul-08 00:00:00.0000, -4.569861189679271E+08, -2.202006014054606E+07, 2.600609522801700E+07,
2460140.500000000, A.D. 2023-Jul-15 00:00:00.0000, -4.560557286916646E+08, -3.201256222890661E+07, 2.611035463860004E+07,
2460147.500000000, A.D. 2023-Jul-22 00:00:00.0000, -4.548948329953961E+08, -4.198889285316957E+07, 2.620141502921095E+07,
$$EOE